{"type": "FeatureCollection", "features": [ {"type": "Feature", "properties": {"norad_id": 29853, "name": "FENGYUN 1C DEB", "group": "fengyun-1c-debris", "lat": -77.57639011839692, "lon": -108.50116307452993, "alt_km": 854.2218801927038, "timestamp": "2025-12-18T21:31:51.273309+00:00", "meta": {"OBJECT_NAME": "FENGYUN 1C DEB", "OBJECT_ID": "1999-025EX", "EPOCH": "2025-12-17T20:09:58.579776", "MEAN_MOTION": 13.93815033, "ECCENTRICITY": 0.01616716, "INCLINATION": 98.4579, "RA_OF_ASC_NODE": 113.0178, "ARG_OF_PERICENTER": 208.4652, "MEAN_ANOMALY": 150.761, "EPHEMERIS_TYPE": 0, "CLASSIFICATION_TYPE": "U", "NORAD_CAT_ID": 29853, "ELEMENT_SET_NO": 999, "REV_AT_EPOCH": 95740, "BSTAR": 0.0012855806, "MEAN_MOTION_DOT": 1.849e-05, "MEAN_MOTION_DDOT": 0}, "tle": {"line1": "1 29853U 99025EX  25351.84026134  .00001849  00000+0  12856-2 0  9991", "line2": "2 29853  98.4579 113.0178 0161671 208.4652 150.7610 13.93815033957402"}}, "geometry": {"type": "Point", "coordinates": [-108.50116307452993, -77.57639011839692]}}, {"type": "Feature", "properties": {"norad_id": 29854, "name": "FENGYUN 1C DEB", "group": "fengyun-1c-debris", "lat": -78.18491437973655, "lon": -157.56736124475972, "alt_km": 1006.1817762966011, "timestamp": "2025-12-18T21:31:51.273319+00:00", "meta": {"OBJECT_NAME": "FENGYUN 1C DEB", "OBJECT_ID": "1999-025EY", "EPOCH": "2025-12-18T06:52:12.056160", "MEAN_MOTION": 13.83345422, "ECCENTRICITY": 0.01471524, "INCLINATION": 98.9273, "RA_OF_ASC_NODE": 153.1416, "ARG_OF_PERICENTER": 35.9088, "MEAN_ANOMALY": 82.873, "EPHEMERIS_TYPE": 0, "CLASSIFICATION_TYPE": "U", "NORAD_CAT_ID": 29854, "ELEMENT_SET_NO": 999, "REV_AT_EPOCH": 95420, "BSTAR": 0.00026114985, "MEAN_MOTION_DOT": 2.71e-06, "MEAN_MOTION_DDOT": 0}, "tle": {"line1": "1 29854U 99025EY  25352.28625065  .00000271  00000+0  26115-3 0  9991", "line2": "2 29854  98.9273 153.1416 0147152  35.9088  82.8730 13.83345422954205"}}, "geometry": {"type": "Point", "coordinates": [-157.56736124475972, -78.18491437973655]}}, {"type": "Feature", "properties": {"norad_id": 29855, "name": "FENGYUN 1C DEB", "group": "fengyun-1c-debris", "lat": 49.53947756731604, "lon": 123.67882366809046, "alt_km": 906.3728807591388, "timestamp": "2025-12-18T21:31:51.273330+00:00", "meta": {"OBJECT_NAME": "FENGYUN 1C DEB", "OBJECT_ID": "1999-025EZ", "EPOCH": "2025-12-17T19:21:50.150880", "MEAN_MOTION": 14.01619701, "ECCENTRICITY": 0.01840193, "INCLINATION": 98.1808, "RA_OF_ASC_NODE": 292.9901, "ARG_OF_PERICENTER": 31.9597, "MEAN_ANOMALY": 357.3172, "EPHEMERIS_TYPE": 0, "CLASSIFICATION_TYPE": "U", "NORAD_CAT_ID": 29855, "ELEMENT_SET_NO": 999, "REV_AT_EPOCH": 95783, "BSTAR": 0.0018508628, "MEAN_MOTION_DOT": 3.214e-05, "MEAN_MOTION_DDOT": 0}, "tle": {"line1": "1 29855U 99025EZ  25351.80683045  .00003214  00000+0  18509-2 0  9998", "line2": "2 29855  98.1808 292.9901 0184019  31.9597 357.3172 14.01619701957834"}}, "geometry": {"type": "Point", "coordinates": [123.67882366809046, 49.53947756731604]}}, {"type": "Feature", "properties": {"norad_id": 29856, "name": "FENGYUN 1C DEB", "group": "fengyun-1c-debris", "lat": -24.113888844127853, "lon": 90.9605023040974, "alt_km": 631.5603542929575, "timestamp": "2025-12-18T21:31:51.273340+00:00", "meta": {"OBJECT_NAME": "FENGYUN 1C DEB", "OBJECT_ID": "1999-025FA", "EPOCH": "2025-12-17T18:13:29.313120", "MEAN_MOTION": 14.47878418, "ECCENTRICITY": 0.02623739, "INCLINATION": 98.689, "RA_OF_ASC_NODE": 85.8651, "ARG_OF_PERICENTER": 282.6807, "MEAN_ANOMALY": 243.5396, "EPHEMERIS_TYPE": 0, "CLASSIFICATION_TYPE": "U", "NORAD_CAT_ID": 29856, "ELEMENT_SET_NO": 999, "REV_AT_EPOCH": 96447, "BSTAR": 0.0019682622, "MEAN_MOTION_DOT": 0.00011229, "MEAN_MOTION_DDOT": 0}, "tle": {"line1": "1 29856U 99025FA  25351.75936705  .00011229  00000+0  19683-2 0  9996", "line2": "2 29856  98.6890  85.8651 0262373 282.6807 243.5396 14.47878418964475"}}, "geometry": {"type": "Point", "coordinates": [90.9605023040974, -24.113888844127853]}}, {"type": "Feature", "properties": {"norad_id": 29857, "name": "FENGYUN 1C DEB", "group": "fengyun-1c-debris", "lat": 63.382788059506126, "lon": -163.22671055479762, "alt_km": 1085.385689195712, "timestamp": "2025-12-18T21:31:51.273351+00:00", "meta": {"OBJECT_NAME": "FENGYUN 1C DEB", "OBJECT_ID": "1999-025FB", "EPOCH": "2025-12-18T00:06:31.999392", "MEAN_MOTION": 13.81899578, "ECCENTRICITY": 0.01927552, "INCLINATION": 98.4223, "RA_OF_ASC_NODE": 358.7795, "ARG_OF_PERICENTER": 280.017, "MEAN_ANOMALY": 77.9285, "EPHEMERIS_TYPE": 0, "CLASSIFICATION_TYPE": "U", "NORAD_CAT_ID": 29857, "ELEMENT_SET_NO": 999, "REV_AT_EPOCH": 94848, "BSTAR": 0.0013356828, "MEAN_MOTION_DOT": 1.611e-05, "MEAN_MOTION_DDOT": 0}, "tle": {"line1": "1 29857U 99025FB  25352.00453703  .00001611  00000+0  13357-2 0  9994", "line2": "2 29857  98.4223 358.7795 0192755 280.0170  77.9285 13.81899578948482"}}, "geometry": {"type": "Point", "coordinates": [-163.22671055479762, 63.382788059506126]}}, {"type": "Feature", "properties": {"norad_id": 29858, "name": "FENGYUN 1C DEB", "group": "fengyun-1c-debris", "lat": -71.95563334393628, "lon": 124.22538535149091, "alt_km": 1054.8175257317662, "timestamp": "2025-12-18T21:31:51.273361+00:00", "meta": {"OBJECT_NAME": "FENGYUN 1C DEB", "OBJECT_ID": "1999-025FC", "EPOCH": "2025-12-18T06:19:57.654336", "MEAN_MOTION": 13.77799986, "ECCENTRICITY": 0.01979837, "INCLINATION": 99.2131, "RA_OF_ASC_NODE": 93.7304, "ARG_OF_PERICENTER": 49.6697, "MEAN_ANOMALY": 338.5314, "EPHEMERIS_TYPE": 0, "CLASSIFICATION_TYPE": "U", "NORAD_CAT_ID": 29858, "ELEMENT_SET_NO": 999, "REV_AT_EPOCH": 94630, "BSTAR": 0.00088365477, "MEAN_MOTION_DOT": 9.8e-06, "MEAN_MOTION_DDOT": 0}, "tle": {"line1": "1 29858U 99025FC  25352.26386174  .00000980  00000+0  88365-3 0  9990", "line2": "2 29858  99.2131  93.7304 0197983  49.6697 338.5314 13.77799986946308"}}, "geometry": {"type": "Point", "coordinates": [124.22538535149091, -71.95563334393628]}}, {"type": "Feature", "properties": {"norad_id": 29859, "name": "FENGYUN 1C DEB", "group": "fengyun-1c-debris", "lat": 61.69244170276549, "lon": 22.634012024143086, "alt_km": 932.2472553391153, "timestamp": "2025-12-18T21:31:51.273371+00:00", "meta": {"OBJECT_NAME": "FENGYUN 1C DEB", "OBJECT_ID": "1999-025FD", "EPOCH": "2025-12-17T23:58:13.667520", "MEAN_MOTION": 13.74063246, "ECCENTRICITY": 0.02947115, "INCLINATION": 98.3351, "RA_OF_ASC_NODE": 186.0549, "ARG_OF_PERICENTER": 198.749, "MEAN_ANOMALY": 160.2622, "EPHEMERIS_TYPE": 0, "CLASSIFICATION_TYPE": "U", "NORAD_CAT_ID": 29859, "ELEMENT_SET_NO": 999, "REV_AT_EPOCH": 94052, "BSTAR": 0.0017717472, "MEAN_MOTION_DOT": 2.243e-05, "MEAN_MOTION_DDOT": 0}, "tle": {"line1": "1 29859U 99025FD  25351.99876930  .00002243  00000+0  17717-2 0  9990", "line2": "2 29859  98.3351 186.0549 0294711 198.7490 160.2622 13.74063246940524"}}, "geometry": {"type": "Point", "coordinates": [22.634012024143086, 61.69244170276549]}}, {"type": "Feature", "properties": {"norad_id": 29860, "name": "FENGYUN 1C DEB", "group": "fengyun-1c-debris", "lat": -20.068970039953093, "lon": 29.420473087405583, "alt_km": 819.1716337222351, "timestamp": "2025-12-18T21:31:51.273382+00:00", "meta": {"OBJECT_NAME": "FENGYUN 1C DEB", "OBJECT_ID": "1999-025FE", "EPOCH": "2025-12-17T16:36:01.130400", "MEAN_MOTION": 13.77555081, "ECCENTRICITY": 0.02211336, "INCLINATION": 98.6176, "RA_OF_ASC_NODE": 25.15, "ARG_OF_PERICENTER": 329.8446, "MEAN_ANOMALY": 154.6018, "EPHEMERIS_TYPE": 0, "CLASSIFICATION_TYPE": "U", "NORAD_CAT_ID": 29860, "ELEMENT_SET_NO": 999, "REV_AT_EPOCH": 94207, "BSTAR": 0.0019739598, "MEAN_MOTION_DOT": 2.317e-05, "MEAN_MOTION_DDOT": 0}, "tle": {"line1": "1 29860U 99025FE  25351.69167975  .00002317  00000+0  19740-2 0  9991", "line2": "2 29860  98.6176  25.1500 0221133 329.8446 154.6018 13.77555081942074"}}, "geometry": {"type": "Point", "coordinates": [29.420473087405583, -20.068970039953093]}}, {"type": "Feature", "properties": {"norad_id": 29865, "name": "FENGYUN 1C DEB", "group": "fengyun-1c-debris", "lat": -60.523439205243434, "lon": 68.22219537058284, "alt_km": 667.9099177662583, "timestamp": "2025-12-18T21:31:51.273392+00:00", "meta": {"OBJECT_NAME": "FENGYUN 1C DEB", "OBJECT_ID": "1999-025FK", "EPOCH": "2025-12-18T06:24:48.227040", "MEAN_MOTION": 14.82653721, "ECCENTRICITY": 0.01165496, "INCLINATION": 98.9212, "RA_OF_ASC_NODE": 263.6552, "ARG_OF_PERICENTER": 123.9105, "MEAN_ANOMALY": 356.5368, "EPHEMERIS_TYPE": 0, "CLASSIFICATION_TYPE": "U", "NORAD_CAT_ID": 29865, "ELEMENT_SET_NO": 999, "REV_AT_EPOCH": 840, "BSTAR": 0.00053381869, "MEAN_MOTION_DOT": 4.775e-05, "MEAN_MOTION_DDOT": 0}, "tle": {"line1": "1 29865U 99025FK  25352.26722485  .00004775  00000+0  53382-3 0  9994", "line2": "2 29865  98.9212 263.6552 0116549 123.9105 356.5368 14.82653721  8406"}}, "geometry": {"type": "Point", "coordinates": [68.22219537058284, -60.523439205243434]}}, {"type": "Feature", "properties": {"norad_id": 29866, "name": "FENGYUN 1C DEB", "group": "fengyun-1c-debris", "lat": -35.70198078200886, "lon": -15.686391140147794, "alt_km": 769.960104215218, "timestamp": "2025-12-18T21:31:51.273402+00:00", "meta": {"OBJECT_NAME": "FENGYUN 1C DEB", "OBJECT_ID": "1999-025FL", "EPOCH": "2025-12-17T22:59:58.268256", "MEAN_MOTION": 14.64232125, "ECCENTRICITY": 0.01946879, "INCLINATION": 98.0372, "RA_OF_ASC_NODE": 337.5689, "ARG_OF_PERICENTER": 198.3309, "MEAN_ANOMALY": 218.1808, "EPHEMERIS_TYPE": 0, "CLASSIFICATION_TYPE": "U", "NORAD_CAT_ID": 29866, "ELEMENT_SET_NO": 999, "REV_AT_EPOCH": 403, "BSTAR": 0.00019343418, "MEAN_MOTION_DOT": 1.285e-05, "MEAN_MOTION_DDOT": 0}, "tle": {"line1": "1 29866U 99025FL  25351.95831329  .00001285  00000+0  19343-3 0  9990", "line2": "2 29866  98.0372 337.5689 0194687 198.3309 218.1808 14.64232125  4036"}}, "geometry": {"type": "Point", "coordinates": [-15.686391140147794, -35.70198078200886]}}]}